[{"name":"COSMOS 2509 (RODNIK-S *)","line1":"1 40922U 15050C   26177.78675227 -.00000013  00000+0 -16492-3 0  9995","line2":"2 40922  82.4885  72.2982 0015445  23.2943 336.8833 12.42883726488070"},{"name":"LINGQIAO VIDEO A","line1":"1 40959U 15057B   26177.77576449  .00000753  00000+0  11244-3 0  9996","line2":"2 40959  97.6621 172.1046 0015280 236.0665 123.9094 14.77404753576823"},{"name":"LINGQIAO VIDEO B","line1":"1 40960U 15057C   26177.75174824  .00000922  00000+0  13586-3 0  9996","line2":"2 40960  97.6587 173.2426 0015451 236.1222 123.8519 14.77510957576869"},{"name":"JILIN-1","line1":"1 40961U 15057D   26177.69332001  .00000765  00000+0  11208-3 0  9997","line2":"2 40961  97.6509 176.5880 0015659 229.0069 130.9789 14.78174309577018"},{"name":"FOX-1A (AO-85)","line1":"1 40967U 15058D   26177.60875044  .00002109  00000+0  19593-3 0  9993","line2":"2 40967  64.7749 249.7037 0131014  52.9293 308.3713 14.91006682114971"},{"name":"SINOD-D 1","line1":"1 40968U 15058E   26177.43763045  .00003234  00000+0  26324-3 0  9992","line2":"2 40968  64.7739 229.9429 0119663  49.4285 311.7170 14.95955298118041"},{"name":"ELEKTRO-L 2","line1":"1 41105U 15074A   26176.94987031 -.00000113  00000+0  00000+0 0  9995","line2":"2 41105   6.7170  70.4166 0000727 286.6211 244.4527  1.00271163 38594"},{"name":"DAMPE","line1":"1 41173U 15078A   26177.71206796  .00001485  00000+0  52398-4 0  9996","line2":"2 41173  97.4561 183.2258 0013407  47.8135 312.4241 15.30808871586009"},{"name":"ORBCOMM FM110","line1":"1 41182U 15081D   26177.69190084  .00000590  00000+0  16101-3 0  9996","line2":"2 41182  47.0031 316.5018 0002613 132.8455 227.2650 14.58893336559011"},{"name":"ORBCOMM FM112","line1":"1 41184U 15081F   26177.52510522  .00000343  00000+0  10883-3 0  9990","line2":"2 41184  46.9976 226.0906 0004102 254.9031 105.1401 14.58913881560312"},{"name":"ORBCOMM FM113","line1":"1 41185U 15081G   26177.43354869  .00000279  00000+0  95347-4 0  9998","line2":"2 41185  46.9993 226.9043 0002586 256.4243 103.6355 14.58866013560280"},{"name":"ORBCOMM FM108","line1":"1 41187U 15081J   26177.60130584  .00000552  00000+0  15290-3 0  9997","line2":"2 41187  47.0041 137.6869 0003172 256.8834 103.1698 14.58884724561458"},{"name":"ORBCOMM FM117","line1":"1 41188U 15081K   26177.56688240  .00000289  00000+0  97330-4 0  9993","line2":"2 41188  47.0000 136.4805 0003648 260.3036  99.7438 14.58871605561493"},{"name":"ORBCOMM FM116","line1":"1 41189U 15081L   26177.41023061  .00000393  00000+0  11934-3 0  9993","line2":"2 41189  47.0009 227.0123 0000687 156.2927 203.7991 14.58893255560287"},{"name":"HORYU-4","line1":"1 41340U 16012D   26177.60135035  .00981345  51298-3  11416-2 0  9991","line2":"2 41340  30.9826   9.3933 0008771 328.5167  31.4973 16.07657648572320"},{"name":"ZIYUAN 3-02 (ZY 3-02)","line1":"1 41556U 16033A   26177.59589329  .00005434  00000+0  24577-3 0  9990","line2":"2 41556  97.3839 253.1891 0012478 254.3189 105.6671 15.21264400559410"},{"name":"CARTOSAT-2C","line1":"1 41599U 16040A   26177.74269604  .00005258  00000+0  25227-3 0  9990","line2":"2 41599  97.4484 237.5892 0010541 101.9957 258.2459 15.19264713555161"},{"name":"LAPAN-A3","line1":"1 41603U 16040E   26177.72033473  .00003898  00000+0  12386-3 0  9997","line2":"2 41603  97.1487 173.5528 0009663 352.5383   7.5714 15.33163675556275"},{"name":"GAOFEN-3","line1":"1 41727U 16049A   26177.72751938 -.00000064  00000+0 -62282-5 0  9992","line2":"2 41727  98.4013 185.3694 0001589  97.0306 263.1064 14.42216023520028"},{"name":"CAS-2T & KS-1Q","line1":"1 41847U 16066G   26177.45215971  .00001620  00000+0  23336-3 0  9998","line2":"2 41847  98.3822 253.0826 0342902 101.4662 262.5241 14.44722998506131"},{"name":"YUNHAI-1 01","line1":"1 41857U 16068A   26177.59607729  .00000358  00000+0  14842-3 0  9991","line2":"2 41857  98.5845 188.5145 0005632  32.9501 327.2033 14.32429128503176"},{"name":"RESOURCESAT-2A","line1":"1 41877U 16074A   26177.64275596  .00000167  00000+0  96428-4 0  9998","line2":"2 41877  98.7527 251.0702 0003231  65.6582 294.4933 14.21619414495640"},{"name":"TANSAT","line1":"1 41898U 16081A   26177.63785225  .00000368  00000+0  87090-4 0  9991","line2":"2 41898  98.5364 178.1749 0019165 281.4326  78.4721 14.59957883506001"},{"name":"JILIN-1 03","line1":"1 41914U 17002B   26177.56718518  .00013084  00000+0  31061-3 0  9992","line2":"2 41914  97.1944 184.5199 0007674 128.2218 231.9722 15.41793160523306"}]